CCSDS_OMM_VERS = 2.0
CREATION_DATE  = 
ORIGINATOR     = 

OBJECT_NAME    = SHIYAN-32 B
OBJECT_ID      = 2025-255B
CENTER_NAME    = EARTH
REF_FRAME      = TEME
TIME_SYSTEM    = UTC
MEAN_ELEMENT_THEORY = SGP/SGP4

EPOCH          = 2025-11-18T21:38:36.319200
MEAN_MOTION    = 15.42291022
ECCENTRICITY   = .00143746
INCLINATION    = 52.9975
RA_OF_ASC_NODE = 291.2495
ARG_OF_PERICENTER = 324.6641
MEAN_ANOMALY   = 35.3409

EPHEMERIS_TYPE = 0
CLASSIFICATION_TYPE = U
NORAD_CAT_ID   = 66377
ELEMENT_SET_NO = 999
REV_AT_EPOCH   = 153
BSTAR          = .83449505E-3
MEAN_MOTION_DOT = .36362E-3
MEAN_MOTION_DDOT = 0

CCSDS_OMM_VERS = 2.0
CREATION_DATE  = 
ORIGINATOR     = 

OBJECT_NAME    = SHIYAN-32 C
OBJECT_ID      = 2025-255C
CENTER_NAME    = EARTH
REF_FRAME      = TEME
TIME_SYSTEM    = UTC
MEAN_ELEMENT_THEORY = SGP/SGP4

EPOCH          = 2025-11-18T23:09:31.292928
MEAN_MOTION    = 15.42592679
ECCENTRICITY   = .00137815
INCLINATION    = 52.9987
RA_OF_ASC_NODE = 290.9314
ARG_OF_PERICENTER = 328.9283
MEAN_ANOMALY   = 31.0905

EPHEMERIS_TYPE = 0
CLASSIFICATION_TYPE = U
NORAD_CAT_ID   = 66378
ELEMENT_SET_NO = 999
REV_AT_EPOCH   = 154
BSTAR          = .82451541E-3
MEAN_MOTION_DOT = .3628E-3
MEAN_MOTION_DDOT = 0

CCSDS_OMM_VERS = 2.0
CREATION_DATE  = 
ORIGINATOR     = 

OBJECT_NAME    = STARLINK-35139
OBJECT_ID      = 2025-257A
CENTER_NAME    = EARTH
REF_FRAME      = TEME
TIME_SYSTEM    = UTC
MEAN_ELEMENT_THEORY = SGP/SGP4

EPOCH          = 2025-11-18T16:00:05.000256
MEAN_MOTION    = 15.86747698
ECCENTRICITY   = .000111
INCLINATION    = 53.1540
RA_OF_ASC_NODE = 20.5713
ARG_OF_PERICENTER = 48.4520
MEAN_ANOMALY   = 14.8525

EPHEMERIS_TYPE = 0
CLASSIFICATION_TYPE = U
NORAD_CAT_ID   = 66380
ELEMENT_SET_NO = 999
REV_AT_EPOCH   = 256
BSTAR          = -.57033E-2
MEAN_MOTION_DOT = -.1312438E-1
MEAN_MOTION_DDOT = 0

CCSDS_OMM_VERS = 2.0
CREATION_DATE  = 
ORIGINATOR     = 

OBJECT_NAME    = STARLINK-35158
OBJECT_ID      = 2025-257B
CENTER_NAME    = EARTH
REF_FRAME      = TEME
TIME_SYSTEM    = UTC
MEAN_ELEMENT_THEORY = SGP/SGP4

EPOCH          = 2025-11-18T16:00:05.000256
MEAN_MOTION    = 15.86779918
ECCENTRICITY   = .000104
INCLINATION    = 53.1536
RA_OF_ASC_NODE = 20.5675
ARG_OF_PERICENTER = 50.0507
MEAN_ANOMALY   = 14.8178

EPHEMERIS_TYPE = 0
CLASSIFICATION_TYPE = U
NORAD_CAT_ID   = 66381
ELEMENT_SET_NO = 999
REV_AT_EPOCH   = 262
BSTAR          = -.56758E-2
MEAN_MOTION_DOT = -.1308655E-1
MEAN_MOTION_DDOT = 0

CCSDS_OMM_VERS = 2.0
CREATION_DATE  = 
ORIGINATOR     = 

OBJECT_NAME    = STARLINK-35639
OBJECT_ID      = 2025-257C
CENTER_NAME    = EARTH
REF_FRAME      = TEME
TIME_SYSTEM    = UTC
MEAN_ELEMENT_THEORY = SGP/SGP4

EPOCH          = 2025-11-18T16:00:05.000256
MEAN_MOTION    = 15.86808402
ECCENTRICITY   = .000114
INCLINATION    = 53.1533
RA_OF_ASC_NODE = 20.5627
ARG_OF_PERICENTER = 51.3096
MEAN_ANOMALY   = 15.8134

EPHEMERIS_TYPE = 0
CLASSIFICATION_TYPE = U
NORAD_CAT_ID   = 66382
ELEMENT_SET_NO = 999
REV_AT_EPOCH   = 262
BSTAR          = -.57236E-2
MEAN_MOTION_DOT = -.1320061E-1
MEAN_MOTION_DDOT = 0

CCSDS_OMM_VERS = 2.0
CREATION_DATE  = 
ORIGINATOR     = 

OBJECT_NAME    = STARLINK-35690
OBJECT_ID      = 2025-257D
CENTER_NAME    = EARTH
REF_FRAME      = TEME
TIME_SYSTEM    = UTC
MEAN_ELEMENT_THEORY = SGP/SGP4

EPOCH          = 2025-11-18T16:00:05.000256
MEAN_MOTION    = 15.86798971
ECCENTRICITY   = .0000831
INCLINATION    = 53.1532
RA_OF_ASC_NODE = 20.5485
ARG_OF_PERICENTER = 64.9568
MEAN_ANOMALY   = 8.8396

EPHEMERIS_TYPE = 0
CLASSIFICATION_TYPE = U
NORAD_CAT_ID   = 66383
ELEMENT_SET_NO = 999
REV_AT_EPOCH   = 262
BSTAR          = -.585E-2
MEAN_MOTION_DOT = -.1344862E-1
MEAN_MOTION_DDOT = 0

CCSDS_OMM_VERS = 2.0
CREATION_DATE  = 
ORIGINATOR     = 

OBJECT_NAME    = STARLINK-35662
OBJECT_ID      = 2025-257E
CENTER_NAME    = EARTH
REF_FRAME      = TEME
TIME_SYSTEM    = UTC
MEAN_ELEMENT_THEORY = SGP/SGP4

EPOCH          = 2025-11-18T16:00:05.000256
MEAN_MOTION    = 15.86826129
ECCENTRICITY   = .0001137
INCLINATION    = 53.1534
RA_OF_ASC_NODE = 20.5448
ARG_OF_PERICENTER = 52.0881
MEAN_ANOMALY   = 23.7302

EPHEMERIS_TYPE = 0
CLASSIFICATION_TYPE = U
NORAD_CAT_ID   = 66384
ELEMENT_SET_NO = 999
REV_AT_EPOCH   = 262
BSTAR          = -.58537E-2
MEAN_MOTION_DOT = -.1347402E-1
MEAN_MOTION_DDOT = 0

CCSDS_OMM_VERS = 2.0
CREATION_DATE  = 
ORIGINATOR     = 

OBJECT_NAME    = STARLINK-35659
OBJECT_ID      = 2025-257F
CENTER_NAME    = EARTH
REF_FRAME      = TEME
TIME_SYSTEM    = UTC
MEAN_ELEMENT_THEORY = SGP/SGP4

EPOCH          = 2025-11-18T16:00:05.000256
MEAN_MOTION    = 15.86775179
ECCENTRICITY   = .000116
INCLINATION    = 53.1534
RA_OF_ASC_NODE = 20.5539
ARG_OF_PERICENTER = 51.0413
MEAN_ANOMALY   = 20.3194

EPHEMERIS_TYPE = 0
CLASSIFICATION_TYPE = U
NORAD_CAT_ID   = 66385
ELEMENT_SET_NO = 999
REV_AT_EPOCH   = 262
BSTAR          = -.58119E-2
MEAN_MOTION_DOT = -.1336006E-1
MEAN_MOTION_DDOT = 0

CCSDS_OMM_VERS = 2.0
CREATION_DATE  = 
ORIGINATOR     = 

OBJECT_NAME    = STARLINK-35651
OBJECT_ID      = 2025-257G
CENTER_NAME    = EARTH
REF_FRAME      = TEME
TIME_SYSTEM    = UTC
MEAN_ELEMENT_THEORY = SGP/SGP4

EPOCH          = 2025-11-18T16:00:05.000256
MEAN_MOTION    = 15.86845689
ECCENTRICITY   = .0001184
INCLINATION    = 53.1534
RA_OF_ASC_NODE = 20.5387
ARG_OF_PERICENTER = 50.9544
MEAN_ANOMALY   = 27.6843

EPHEMERIS_TYPE = 0
CLASSIFICATION_TYPE = U
NORAD_CAT_ID   = 66386
ELEMENT_SET_NO = 999
REV_AT_EPOCH   = 262
BSTAR          = -.59297E-2
MEAN_MOTION_DOT = -.1363895E-1
MEAN_MOTION_DDOT = 0

CCSDS_OMM_VERS = 2.0
CREATION_DATE  = 
ORIGINATOR     = 

OBJECT_NAME    = STARLINK-35661
OBJECT_ID      = 2025-257H
CENTER_NAME    = EARTH
REF_FRAME      = TEME
TIME_SYSTEM    = UTC
MEAN_ELEMENT_THEORY = SGP/SGP4

EPOCH          = 2025-11-18T16:00:05.000256
MEAN_MOTION    = 15.86870151
ECCENTRICITY   = .0001255
INCLINATION    = 53.1535
RA_OF_ASC_NODE = 20.5340
ARG_OF_PERICENTER = 58.2498
MEAN_ANOMALY   = 22.7079

EPHEMERIS_TYPE = 0
CLASSIFICATION_TYPE = U
NORAD_CAT_ID   = 66387
ELEMENT_SET_NO = 999
REV_AT_EPOCH   = 262
BSTAR          = -.5962E-2
MEAN_MOTION_DOT = -.1371885E-1
MEAN_MOTION_DDOT = 0

CCSDS_OMM_VERS = 2.0
CREATION_DATE  = 
ORIGINATOR     = 

OBJECT_NAME    = STARLINK-35647
OBJECT_ID      = 2025-257J
CENTER_NAME    = EARTH
REF_FRAME      = TEME
TIME_SYSTEM    = UTC
MEAN_ELEMENT_THEORY = SGP/SGP4

EPOCH          = 2025-11-18T16:00:05.000256
MEAN_MOTION    = 15.86891110
ECCENTRICITY   = .0001133
INCLINATION    = 53.1535
RA_OF_ASC_NODE = 20.5283
ARG_OF_PERICENTER = 53.8613
MEAN_ANOMALY   = 29.7809

EPHEMERIS_TYPE = 0
CLASSIFICATION_TYPE = U
NORAD_CAT_ID   = 66388
ELEMENT_SET_NO = 999
REV_AT_EPOCH   = 262
BSTAR          = -.60162E-2
MEAN_MOTION_DOT = -.1383928E-1
MEAN_MOTION_DDOT = 0

